GORIZONT 1              
1 11158U 78118A   24151.58639280  .00000064  00000+0  00000+0 0  9993
2 11158  11.4416 178.0976 3258441 320.3205  19.8932  1.00243159115447
GORIZONT 2              
1 11440U 79062A   24153.99616524  .00000016  00000+0  00000+0 0  9996
2 11440   7.5719 293.7154 0001606 313.9736  65.6821  1.00248230130537
GORIZONT 3              
1 11648U 79105A   24154.49266205  .00000142  00000+0  00000+0 0  9997
2 11648   7.7448 295.3256 0012328 233.7072 301.0570  1.00249526114993
GORIZONT 4              
1 11841U 80049A   24153.99468587  .00000027  00000+0  00000+0 0  9994
2 11841   8.9448 301.8235 0000395  22.0412 341.6806  0.98628168226208
GORIZONT 5              
1 13092U 82020A   24153.52688368  .00000012  00000+0  00000+0 0  9999
2 13092  10.0156 307.3817 0033275 231.8257 148.3296  0.98530821114259
GORIZONT 6              
1 13624U 82103A   24154.26371094 -.00000231  00000+0  00000+0 0  9993
2 13624   8.9661 307.6178 0000425 206.7473 161.2818  1.00273810113475
GORIZONT 7              
1 14160U 83066A   24153.29515677 -.00000212  00000+0  00000+0 0  9996
2 14160  10.7762 317.6337 0010121 330.1452 205.9894  0.98349715147410
GORIZONT 8              
1 14532U 83118A   24153.66483059 -.00000140  00000+0  00000+0 0  9996
2 14532  10.9879 319.5994 0029599 165.8655 201.5922  0.98271160113214
GORIZONT 9              
1 14940U 84041A   24153.43019868 -.00000302  00000+0  00000+0 0  9993
2 14940  10.1657 317.4592 0004636 236.9566 307.7424  1.00274893114464
GORIZONT 10             
1 15144U 84078A   24153.32966008 -.00000296  00000+0  00000+0 0  9997
2 15144  10.2832 318.4895 0000424 241.8725 121.2566  1.00324903147108
GORIZONT 11             
1 15484U 85007A   24153.56641777  .00000029  00000+0  00000+0 0  9999
2 15484  10.4991 320.5737 0003977 178.4939  17.2429  1.00153589145155
GORIZONT 12             
1 16769U 86044A   24153.45398413 -.00000366  00000+0  00000+0 0  9997
2 16769  11.2447 326.1047 0001562 248.3012 307.9258  1.00254958139783
GORIZONT 13             
1 17083U 86090A   24154.26962847 -.00000157  00000+0  00000+0 0  9994
2 17083  13.2655 333.5974 0012912 352.7766  21.6585  0.96727396111467
GORIZONT 14             
1 17969U 87040A   24153.44633137 -.00000080  00000+0  00000+0 0  9994
2 17969  12.0006 324.7027 0031006 190.3653 357.3058  0.97658429112572
GORIZONT 15             
1 19017U 88028A   24153.46399543 -.00000057  00000+0  00000+0 0  9993
2 19017  13.6382 336.2103 0037348 173.3895 174.2841  0.97826576112205
GORIZONT 16             
1 19397U 88071A   24153.32966008 -.00000299  00000+0  00000+0 0  9991
2 19397  12.4749 334.8887 0013795  80.7001 270.2483  0.99981956130770
GORIZONT 17             
1 19765U 89004A   24154.18925402  .00000042  00000+0  00000+0 0  9990
2 19765  13.1046 338.3388 0023067 149.6592  60.8318  0.99065010128181
GORIZONT 18             
1 20107U 89052A   24153.40165525 -.00000275  00000+0  00000+0 0  9990
2 20107  13.1870 339.5635 0033730 331.8418  37.1380  0.99402803127007
GORIZONT 19             
1 20263U 89081A   24153.13297769  .00000117  00000+0  00000+0 0  9995
2 20263  12.8968 338.6743 0003819 220.3271 140.3344  1.00230610 39869
GORIZONT 20             
1 20659U 90054A   24153.49932663 -.00000210  00000+0  00000+0 0  9999
2 20659  13.4140 341.4156 0006933 194.0781 338.9128  1.00317959124211
GORIZONT 21             
1 20923U 90094A   24153.82063292  .00000079  00000+0  00000+0 0  9999
2 20923  13.4470 342.1549 0005504 216.9832   3.2001  1.00332150122961
GORIZONT 22             
1 20953U 90102A   24152.94054767 -.00000021  00000+0  00000+0 0  9999
2 20953  13.4180 342.5944 0001757  16.7754 230.8942  1.00263127122880
GORIZONT 23             
1 21533U 91046A   24153.63509500  .00000017  00000+0  00000+0 0  9993
2 21533  14.2938 346.8103 0003893 316.8121 223.2200  0.98907524113351
GORIZONT 24             
1 21759U 91074A   24153.43672538 -.00000203  00000+0  00000+0 0  9992
2 21759  14.5057 348.7956 0019293 241.0128 307.7893  0.98444790117610
GORIZONT 25             
1 21922U 92017A   24153.46676978 -.00000354  00000+0  00000+0 0  9994
2 21922  14.0322 347.9986 0028153 100.0155  88.6786  0.99851337117497
GORIZONT 26             
1 22041U 92043A   24154.27041167 -.00000168  00000+0  00000+0 0  9995
2 22041  14.2621 350.0982 0031828 250.3843 111.2096  0.99246501116106
GORIZONT 27             
1 22245U 92082A   24154.24850352  .00000087  00000+0  00000+0 0  9994
2 22245  14.1677 349.5158 0011000  25.4959 182.0043  1.00165517119683
GORIZONT 28             
1 22880U 93069A   24153.23030583  .00000073  00000+0  00000+0 0  9994
2 22880  14.4264 353.4953 0034291 150.3526  56.9258  0.99650288111696
GORIZONT 29             
1 22907U 93072A   24152.63515130  .00000066  00000+0  00000+0 0  9999
2 22907  14.3217 352.8802 0008985 359.4431 181.8563  1.00115492111690
GORIZONT 30             
1 23108U 94030A   24154.26980251 -.00000040  00000+0  00000+0 0  9992
2 23108  14.3617 353.7650 0002277 201.0066 153.7118  1.00247576110011
GORIZONT 31             
1 23775U 96005A   24152.72397939 -.00000108  00000+0  00000+0 0  9995
2 23775  14.4686   0.1189 0020207 219.4566  13.9333  0.99881721103593
GORIZONT 32             
1 23880U 96034A   24153.80952144  .00000030  00000+0  00000+0 0  9992
2 23880  14.4337   0.5743 0006961   2.1568 190.8391  1.00194894102570
GORIZONT 33             
1 26372U 00029A   24153.13715477 -.00000019  00000+0  00000+0 0  9990
2 26372  13.4994  12.1521 0001698 163.8609 185.4578  1.00391687 87942
